[{"OBJECT_NAME":"YAOGAN-30 10A","OBJECT_ID":"2021-055A","EPOCH":"2026-03-09T23:48:28.291104","MEAN_MOTION":15.02193247,"ECCENTRICITY":0.0004983,"INCLINATION":34.9965,"RA_OF_ASC_NODE":36.5937,"ARG_OF_PERICENTER":279.793,"MEAN_ANOMALY":80.2215,"EPHEMERIS_TYPE":0,"CLASSIFICATION_TYPE":"U","NORAD_CAT_ID":48860,"ELEMENT_SET_NO":999,"REV_AT_EPOCH":25825,"BSTAR":0.00036861198,"MEAN_MOTION_DOT":4.929e-5,"MEAN_MOTION_DDOT":0},{"OBJECT_NAME":"STARLINK-35097","OBJECT_ID":"2025-191Q","EPOCH":"2026-03-09T15:41:15.519840","MEAN_MOTION":15.05637394,"ECCENTRICITY":0.0002529,"INCLINATION":97.6026,"RA_OF_ASC_NODE":301.4832,"ARG_OF_PERICENTER":101.0669,"MEAN_ANOMALY":259.0843,"EPHEMERIS_TYPE":0,"CLASSIFICATION_TYPE":"U","NORAD_CAT_ID":65393,"ELEMENT_SET_NO":999,"REV_AT_EPOCH":2881,"BSTAR":-0.00029898,"MEAN_MOTION_DOT":-4.371e-5,"MEAN_MOTION_DDOT":0}]
